[{"OBJECT_NAME":"STARLINK-4215","OBJECT_ID":"2022-076X","EPOCH":"2026-03-09T10:53:34.138176","MEAN_MOTION":15.08837822,"ECCENTRICITY":0.00012885,"INCLINATION":53.2176,"RA_OF_ASC_NODE":95.1776,"ARG_OF_PERICENTER":89.7783,"MEAN_ANOMALY":270.3357,"EPHEMERIS_TYPE":0,"CLASSIFICATION_TYPE":"U","NORAD_CAT_ID":53007,"ELEMENT_SET_NO":999,"REV_AT_EPOCH":20281,"BSTAR":3.2208939e-5,"MEAN_MOTION_DOT":2.25e-6,"MEAN_MOTION_DDOT":0},{"OBJECT_NAME":"OBJECT L","OBJECT_ID":"2024-205L","EPOCH":"2026-03-07T03:22:40.585728","MEAN_MOTION":15.10822925,"ECCENTRICITY":0.00547724,"INCLINATION":97.4213,"RA_OF_ASC_NODE":140.2188,"ARG_OF_PERICENTER":346.2042,"MEAN_ANOMALY":13.7688,"EPHEMERIS_TYPE":0,"CLASSIFICATION_TYPE":"U","NORAD_CAT_ID":61904,"ELEMENT_SET_NO":999,"REV_AT_EPOCH":7282,"BSTAR":0.00079283043,"MEAN_MOTION_DOT":0.00013606,"MEAN_MOTION_DDOT":0}]
