STARLINK-4215           
1 53007U 22076X   26068.45386734  .00000225  00000+0  32209-4 0  9992
2 53007  53.2176  95.1776 0001288  89.7783 270.3357 15.08837822202811
2024-205L               
1 61904U 24205L   26066.14074752  .00013606  00000+0  79283-3 0  9990
2 61904  97.4213 140.2188 0054772 346.2042  13.7688 15.10822925 72825
